ONEWEB-0350             
1 49214U 21083AE  25219.87842673  .00000749  00000+0  20173-2 0  9992
2 49214  87.8971  22.4612 0001538  95.8712 264.2592 13.13464868191104
ONEWEB-0351             
1 49215U 21083AF  25219.85332035 -.00000035  00000+0 -11777-3 0  9998
2 49215  87.9300 336.8640 0001731  70.1550 289.9769 13.20769068196727
ONEWEB-0352             
1 49216U 21083AG  25219.93513224 -.00000277  00000+0 -79278-3 0  9997
2 49216  87.8970  22.4904 0001739  78.1138 282.0185 13.13470016191207
ONEWEB-0354             
1 49217U 21083AH  25219.87874299  .00000015  00000+0  39708-5 0  9997
2 49217  87.9298 336.8578 0001662 104.9612 255.1706 13.20771459196760
ONEWEB-0355             
1 49218U 21083AJ  25219.96404438  .00000080  00000+0  18537-3 0  9999
2 49218  87.8980  22.4848 0001571  88.9073 271.2236 13.13471705191087
ONEWEB-0357             
1 49219U 21083AK  25220.10285852  .00000054  00000+0  10028-3 0  9993
2 49219  87.9290 336.8167 0001760  94.6199 265.5135 13.20771715196780
ONEWEB-0332             
1 49279U 21090A   25219.91781932 -.00000101  00000+0 -30690-3 0  9996
2 49279  87.9078 352.0607 0001951  90.4438 269.6915 13.14503965186425
ONEWEB-0347             
1 49280U 21090B   25220.09338441 -.00000005  00000+0 -44182-4 0  9997
2 49280  87.9298 336.8295 0002227  94.8889 265.2498 13.20771692189713
